start=new Date('2022-02-15T00:00:00.000Z').valueOf();
sats=[{"ELEMENT_SET_NO":"999","ARG_OF_PERICENTER":"45.4536","INCLINATION":"53.2174","MEAN_ELEMENT_THEORY":"SGP4","RA_OF_ASC_NODE":"40.4703","GP_ID":"195969286","TLE_LINE2":"2 49455  53.2174  40.4703 0001527  45.4536 353.6559 15.14889570  3626","DECAY_DATE":null,"MEAN_MOTION":"15.14889570","REF_FRAME":"TEME","APOAPSIS":"522.369","SITE":"AFETR","MEAN_ANOMALY":"353.6559","COUNTRY_CODE":"US","EPHEMERIS_TYPE":"0","TIME_SYSTEM":"UTC","EPOCH":"2022-02-14T20:00:01.000224","NORAD_CAT_ID":"49455","CLASSIFICATION_TYPE":"U","ECCENTRICITY":"0.00015270","RCS_SIZE":"LARGE","OBJECT_ID":"2021-104AZ","LAUNCH_DATE":"2021-11-13","REV_AT_EPOCH":"362","TLE_LINE1":"1 49455U 21104AZ  22045.83334491 -.00661001  00000-0 -37455-1 0  9994","PERIAPSIS":"520.262","MEAN_MOTION_DOT":"-0.00661001","FILE":"3300727","OBJECT_NAME":"STARLINK-3145","SEMIMAJOR_AXIS":"6899.451","PERIOD":"95.056","OBJECT_TYPE":"PAYLOAD","CENTER_NAME":"EARTH","MEAN_MOTION_DDOT":"0.0000000000000","BSTAR":"-0.03745500000000"},{"FILE":"3300727","OBJECT_NAME":"STARLINK-3124","SEMIMAJOR_AXIS":"6900.151","PERIOD":"95.071","OBJECT_TYPE":"PAYLOAD","CENTER_NAME":"EARTH","MEAN_MOTION_DDOT":"0.0000000000000","BSTAR":"-0.03766300000000","ECCENTRICITY":"0.00016470","RCS_SIZE":"LARGE","OBJECT_ID":"2021-104BA","LAUNCH_DATE":"2021-11-13","REV_AT_EPOCH":"362","TLE_LINE1":"1 49456U 21104BA  22045.83334491 -.00660384  00000-0 -37663-1 0  9999","PERIAPSIS":"520.880","MEAN_MOTION_DOT":"-0.00660384","MEAN_ANOMALY":"321.9635","COUNTRY_CODE":"US","EPHEMERIS_TYPE":"0","TIME_SYSTEM":"UTC","EPOCH":"2022-02-14T20:00:01.000224","NORAD_CAT_ID":"49456","CLASSIFICATION_TYPE":"U","ELEMENT_SET_NO":"999","ARG_OF_PERICENTER":"40.6622","INCLINATION":"53.2173","MEAN_ELEMENT_THEORY":"SGP4","GP_ID":"195968036","RA_OF_ASC_NODE":"40.4710","TLE_LINE2":"2 49456  53.2173  40.4710 0001647  40.6622 321.9635 15.14658949  3627","DECAY_DATE":null,"REF_FRAME":"TEME","MEAN_MOTION":"15.14658949","APOAPSIS":"523.153","SITE":"AFETR"},{"MEAN_MOTION":"15.15005050","REF_FRAME":"TEME","SITE":"AFETR","APOAPSIS":"522.018","TLE_LINE2":"2 49457  53.2174  40.4698 0001526  46.0746  11.2257 15.15005050  3626","RA_OF_ASC_NODE":"40.4698","GP_ID":"195968286","DECAY_DATE":null,"ARG_OF_PERICENTER":"46.0746","MEAN_ELEMENT_THEORY":"SGP4","INCLINATION":"53.2174","ELEMENT_SET_NO":"999","CLASSIFICATION_TYPE":"U","NORAD_CAT_ID":"49457","MEAN_ANOMALY":"11.2257","EPOCH":"2022-02-14T20:00:01.000224","EPHEMERIS_TYPE":"0","COUNTRY_CODE":"US","TIME_SYSTEM":"UTC","PERIAPSIS":"519.912","MEAN_MOTION_DOT":"-0.00661678","LAUNCH_DATE":"2021-11-13","REV_AT_EPOCH":"362","TLE_LINE1":"1 49457U 21104BB  22045.83334491 -.00661678  00000-0 -37373-1 0  9995","ECCENTRICITY":"0.00015260","OBJECT_ID":"2021-104BB","RCS_SIZE":"LARGE","BSTAR":"-0.03737300000000","OBJECT_TYPE":"PAYLOAD","CENTER_NAME":"EARTH","PERIOD":"95.049","SEMIMAJOR_AXIS":"6899.100","MEAN_MOTION_DDOT":"0.0000000000000","FILE":"3300727","OBJECT_NAME":"STARLINK-3132"},{"BSTAR":"-0.03755200000000","MEAN_MOTION_DDOT":"0.0000000000000","CENTER_NAME":"EARTH","OBJECT_TYPE":"PAYLOAD","SEMIMAJOR_AXIS":"6899.801","PERIOD":"95.064","OBJECT_NAME":"STARLINK-3156","FILE":"3300727","MEAN_MOTION_DOT":"-0.00660575","PERIAPSIS":"520.586","TLE_LINE1":"1 49458U 21104BC  22045.83334491 -.00660575  00000-0 -37552-1 0  9990","LAUNCH_DATE":"2021-11-13","REV_AT_EPOCH":"362","OBJECT_ID":"2021-104BC","RCS_SIZE":"LARGE","ECCENTRICITY":"0.00015650","CLASSIFICATION_TYPE":"U","NORAD_CAT_ID":"49458","EPOCH":"2022-02-14T20:00:01.000224","TIME_SYSTEM":"UTC","COUNTRY_CODE":"US","EPHEMERIS_TYPE":"0","MEAN_ANOMALY":"337.6819","SITE":"AFETR","APOAPSIS":"522.746","MEAN_MOTION":"15.14774190","REF_FRAME":"TEME","DECAY_DATE":null,"TLE_LINE2":"2 49458  53.2173  40.4707 0001565  43.2028 337.6819 15.14774190  3628","RA_OF_ASC_NODE":"40.4707","GP_ID":"195969537","MEAN_ELEMENT_THEORY":"SGP4","INCLINATION":"53.2173","ARG_OF_PERICENTER":"43.2028","ELEMENT_SET_NO":"999"},{"OBJECT_NAME":"STARLINK-3141","FILE":"3300727","MEAN_MOTION_DDOT":"0.0000000000000","CENTER_NAME":"EARTH","OBJECT_TYPE":"PAYLOAD","PERIOD":"95.042","SEMIMAJOR_AXIS":"6898.749","BSTAR":"-0.03729400000000","OBJECT_ID":"2021-104BD","RCS_SIZE":"LARGE","ECCENTRICITY":"0.00016360","TLE_LINE1":"1 49459U 21104BD  22045.83334491 -.00662416  00000-0 -37294-1 0  9990","REV_AT_EPOCH":"362","LAUNCH_DATE":"2021-11-13","MEAN_MOTION_DOT":"-0.00662416","PERIAPSIS":"519.486","EPOCH":"2022-02-14T20:00:01.000224","COUNTRY_CODE":"US","TIME_SYSTEM":"UTC","EPHEMERIS_TYPE":"0","MEAN_ANOMALY":"33.1825","NORAD_CAT_ID":"49459","CLASSIFICATION_TYPE":"U","ELEMENT_SET_NO":"999","MEAN_ELEMENT_THEORY":"SGP4","INCLINATION":"53.2174","ARG_OF_PERICENTER":"42.2745","DECAY_DATE":null,"TLE_LINE2":"2 49459  53.2174  40.4693 0001636  42.2745  33.1825 15.15120598  3621","RA_OF_ASC_NODE":"40.4693","GP_ID":"195969787","SITE":"AFETR","APOAPSIS":"521.743","MEAN_MOTION":"15.15120598","REF_FRAME":"TEME"},{"REF_FRAME":"TEME","MEAN_MOTION":"15.13062075","SITE":"AFETR","APOAPSIS":"528.072","TLE_LINE2":"2 49460  53.2173  40.4657 0001741  42.4456  80.8328 15.13062075  3619","RA_OF_ASC_NODE":"40.4657","GP_ID":"195968537","DECAY_DATE":null,"ARG_OF_PERICENTER":"42.4456","MEAN_ELEMENT_THEORY":"SGP4","INCLINATION":"53.2173","ELEMENT_SET_NO":"999","CLASSIFICATION_TYPE":"U","NORAD_CAT_ID":"49460","MEAN_ANOMALY":"80.8328","EPOCH":"2022-02-14T20:00:01.000224","COUNTRY_CODE":"US","TIME_SYSTEM":"UTC","EPHEMERIS_TYPE":"0","PERIAPSIS":"525.668","MEAN_MOTION_DOT":"-0.00663422","LAUNCH_DATE":"2021-11-13","REV_AT_EPOCH":"361","TLE_LINE1":"1 49460U 21104BE  22045.83334491 -.00663422  00000-0 -39595-1 0  9996","ECCENTRICITY":"0.00017410","OBJECT_ID":"2021-104BE","RCS_SIZE":"LARGE","BSTAR":"-0.03959500000000","CENTER_NAME":"EARTH","OBJECT_TYPE":"PAYLOAD","PERIOD":"95.171","SEMIMAJOR_AXIS":"6905.005","MEAN_MOTION_DDOT":"0.0000000000000","FILE":"3300727","OBJECT_NAME":"STARLINK-3140"},{"REV_AT_EPOCH":"362","LAUNCH_DATE":"2021-12-02","TLE_LINE1":"1 49724U 21115A   22045.83334491 -.00664243  00000-0 -37323-1 0  9990","PERIAPSIS":"519.204","MEAN_MOTION_DOT":"-0.00664243","ECCENTRICITY":"0.00017120","OBJECT_ID":"2021-115A","RCS_SIZE":"LARGE","BSTAR":"-0.03732300000000","FILE":"3300727","OBJECT_NAME":"STARLINK-3219","CENTER_NAME":"EARTH","OBJECT_TYPE":"PAYLOAD","PERIOD":"95.037","SEMIMAJOR_AXIS":"6898.520","MEAN_MOTION_DDOT":"0.0000000000000","TLE_LINE2":"2 49724  53.2175 330.5409 0001712  50.6040 143.4083 15.15196033  3629","GP_ID":"195968062","RA_OF_ASC_NODE":"330.5409","DECAY_DATE":null,"REF_FRAME":"TEME","MEAN_MOTION":"15.15196033","SITE":"AFETR","APOAPSIS":"521.567","ELEMENT_SET_NO":"999","ARG_OF_PERICENTER":"50.6040","MEAN_ELEMENT_THEORY":"SGP4","INCLINATION":"53.2175","NORAD_CAT_ID":"49724","CLASSIFICATION_TYPE":"U","MEAN_ANOMALY":"143.4083","EPOCH":"2022-02-14T20:00:01.000224","COUNTRY_CODE":"US","EPHEMERIS_TYPE":"0","TIME_SYSTEM":"UTC"},{"TLE_LINE1":"1 49725U 21115B   22045.83334491 -.00664406  00000-0 -35014-1 0  9997","REV_AT_EPOCH":"362","LAUNCH_DATE":"2021-12-02","MEAN_MOTION_DOT":"-0.00664406","PERIAPSIS":"512.591","RCS_SIZE":"LARGE","OBJECT_ID":"2021-115B","ECCENTRICITY":"0.00014620","BSTAR":"-0.03501400000000","OBJECT_NAME":"STARLINK-3218","FILE":"3300727","MEAN_MOTION_DDOT":"0.0000000000000","SEMIMAJOR_AXIS":"6891.733","PERIOD":"94.897","OBJECT_TYPE":"PAYLOAD","CENTER_NAME":"EARTH","DECAY_DATE":null,"GP_ID":"195968312","RA_OF_ASC_NODE":"330.5486","TLE_LINE2":"2 49725  53.2177 330.5486 0001462  54.9031 276.0605 15.17434898  3625","APOAPSIS":"514.606","SITE":"AFETR","MEAN_MOTION":"15.17434898","REF_FRAME":"TEME","ELEMENT_SET_NO":"999","INCLINATION":"53.2177","MEAN_ELEMENT_THEORY":"SGP4","ARG_OF_PERICENTER":"54.9031","NORAD_CAT_ID":"49725","CLASSIFICATION_TYPE":"U","TIME_SYSTEM":"UTC","COUNTRY_CODE":"US","EPHEMERIS_TYPE":"0","EPOCH":"2022-02-14T20:00:01.000224","MEAN_ANOMALY":"276.0605"},{"CLASSIFICATION_TYPE":"U","NORAD_CAT_ID":"49726","MEAN_ANOMALY":"236.1770","EPOCH":"2022-02-14T20:00:01.000224","EPHEMERIS_TYPE":"0","COUNTRY_CODE":"US","TIME_SYSTEM":"UTC","MEAN_MOTION":"15.08841255","REF_FRAME":"TEME","SITE":"AFETR","APOAPSIS":"541.450","TLE_LINE2":"2 49726  53.2191 340.4006 0002470  40.1587 236.1770 15.08841255  3587","RA_OF_ASC_NODE":"340.4006","GP_ID":"195969563","DECAY_DATE":null,"ARG_OF_PERICENTER":"40.1587","MEAN_ELEMENT_THEORY":"SGP4","INCLINATION":"53.2191","ELEMENT_SET_NO":"999","BSTAR":"0.00111110000000","CENTER_NAME":"EARTH","OBJECT_TYPE":"PAYLOAD","PERIOD":"95.437","SEMIMAJOR_AXIS":"6917.877","MEAN_MOTION_DDOT":"0.0000000000000","FILE":"3300727","OBJECT_NAME":"STARLINK-3237","PERIAPSIS":"538.033","MEAN_MOTION_DOT":"0.00017440","REV_AT_EPOCH":"358","LAUNCH_DATE":"2021-12-02","TLE_LINE1":"1 49726U 21115C   22045.83334491  .00017440  00000-0  11111-2 0  9999","ECCENTRICITY":"0.00024700","OBJECT_ID":"2021-115C","RCS_SIZE":"LARGE"},{"BSTAR":"-0.00213050000000","OBJECT_TYPE":"PAYLOAD","CENTER_NAME":"EARTH","PERIOD":"95.436","SEMIMAJOR_AXIS":"6917.783","MEAN_MOTION_DDOT":"0.0000000000000","FILE":"3300727","OBJECT_NAME":"STARLINK-3242","PERIAPSIS":"537.939","MEAN_MOTION_DOT":"-0.00034067","REV_AT_EPOCH":"358","LAUNCH_DATE":"2021-12-02","TLE_LINE1":"1 49727U 21115D   22045.83334491 -.00034067  00000-0 -21305-2 0  9992","ECCENTRICITY":"0.00024700","OBJECT_ID":"2021-115D","RCS_SIZE":"LARGE","CLASSIFICATION_TYPE":"U","NORAD_CAT_ID":"49727","MEAN_ANOMALY":"210.7061","EPOCH":"2022-02-14T20:00:01.000224","COUNTRY_CODE":"US","TIME_SYSTEM":"UTC","EPHEMERIS_TYPE":"0","REF_FRAME":"TEME","MEAN_MOTION":"15.08872017","SITE":"AFETR","APOAPSIS":"541.356","TLE_LINE2":"2 49727  53.2181 340.4119 0002470  45.7281 210.7061 15.08872017  3585","RA_OF_ASC_NODE":"340.4119","GP_ID":"195969813","DECAY_DATE":null,"ARG_OF_PERICENTER":"45.7281","MEAN_ELEMENT_THEORY":"SGP4","INCLINATION":"53.2181","ELEMENT_SET_NO":"999"}];
